[{"OBJECT_NAME":"STARLINK-1554","OBJECT_ID":"2020-055AE","EPOCH":"2026-03-09T13:18:17.384832","MEAN_MOTION":15.30224882,"ECCENTRICITY":0.0001418,"INCLINATION":53.1583,"RA_OF_ASC_NODE":114.6651,"ARG_OF_PERICENTER":88.592,"MEAN_ANOMALY":271.5243,"EPHEMERIS_TYPE":0,"CLASSIFICATION_TYPE":"U","NORAD_CAT_ID":46055,"ELEMENT_SET_NO":999,"REV_AT_EPOCH":30905,"BSTAR":0.00040484,"MEAN_MOTION_DOT":0.00011659,"MEAN_MOTION_DDOT":0},{"OBJECT_NAME":"DONGPO 08","OBJECT_ID":"2022-167E","EPOCH":"2026-03-09T22:57:52.742880","MEAN_MOTION":15.31542505,"ECCENTRICITY":0.00092155,"INCLINATION":97.6764,"RA_OF_ASC_NODE":233.3854,"ARG_OF_PERICENTER":153.9158,"MEAN_ANOMALY":206.2548,"EPHEMERIS_TYPE":0,"CLASSIFICATION_TYPE":"U","NORAD_CAT_ID":54686,"ELEMENT_SET_NO":999,"REV_AT_EPOCH":18012,"BSTAR":0.0004734784,"MEAN_MOTION_DOT":0.0001437,"MEAN_MOTION_DDOT":0}]
